GLOBALSTAR M001         
1 25162U 98008A   25152.39775575 -.00000055  00000+0  32270-3 0  9991
2 25162  52.0057  19.1801 0000934 188.2401 343.9762 12.38213953241869
GLOBALSTAR M004         
1 25163U 98008B   25151.64283124 -.00000103  00000+0  71144-5 0  9992
2 25163  51.9992 104.6224 0002770 259.8851 271.3767 12.63396411259596
GLOBALSTAR M002         
1 25164U 98008C   25151.64228713 -.00000092  00000+0 -30706-3 0  9991
2 25164  52.0021 281.6881 0002099 122.2112 237.8911 11.61509710182143
GLOBALSTAR M003         
1 25165U 98008D   25152.55241611 -.00000127  00000+0 -39921-3 0  9992
2 25165  51.9979 211.8262 0007950 260.2390 242.9632 12.12075417231415
GLOBALSTAR M014         
1 25306U 98023A   25151.85471566 -.00000075  00000+0  51711-4 0  9995
2 25306  51.9818 204.7240 0000832 310.3130 220.7489 11.65480769189268
GLOBALSTAR M006         
1 25307U 98023B   25152.01615244 -.00000044  00000+0  65563-3 0  9993
2 25307  51.9937 256.1837 0003429  84.9297  85.4701 11.58176390215062
GLOBALSTAR M015         
1 25308U 98023C   25152.55616050 -.00000076  00000+0 -62128-4 0  9990
2 25308  51.9848 352.5926 0013144  49.9432 344.1356 11.48858730192655
GLOBALSTAR M008         
1 25309U 98023D   25151.56545606 -.00000036  00000+0  47414-3 0  9994
2 25309  51.9969 246.2457 0003155 141.6741 232.2803 12.36069731236108
